1 41188U 15081K   15356.14744473 -.00000209  00000-0  00000+0 0  9992,2 41188  46.9958   2.3657 0029828  19.3821  92.1499 14.78100784    16
1 41188U 15081K   15356.32932488 -.00000216  00000-0  00000+0 0  9995,2 41188  47.0271   1.4842 0049735 358.5154   1.6070 14.78323022    43
1 41188U 15081K   15356.46448535 -.00000210  00000-0  00000+0 0  9999,2 41188  47.0037   0.8334 0029194  16.8968 343.7599 14.78624183    66
1 41188U 15081K   15356.53196765 -.00000210  00000-0  00000+0 0  9992,2 41188  47.0027   0.5067 0029473  17.4731 342.7087 14.78620894    77
1 41188U 15081K   15356.73468162 -.00000210  00000-0  00000+0 0  9997,2 41188  47.0027 359.5173 0029473  18.4331 341.7579 14.78618603   103
1 41188U 15081K   15356.86982426  .00000536  00000-0  10000-3 0  9990,2 41188  47.0022 358.8593 0029575  19.3440 340.8522 14.78618099   129
1 41188U 15081K   15356.93739609  .00000536  00000-0  10000-3 0  9991,2 41188  47.0022 358.5295 0029575  19.6640 340.5386 14.78618545   132
1 41188U 15081K   15357.14010882 -.00016154  00000-0 -21429-2 0  9991,2 41188  47.0016 357.5397 0029543  20.2446 339.9430 14.78597273   163
1 41188U 15081K   15357.41040053 -.00002690  00000-0 -33251-3 0  9991,2 41188  47.0029 356.2181 0029526  22.2063 338.0316 14.78609519   207
1 41188U 15081K   15357.47796786  .00000536  00000-0  10000-3 0  9990,2 41188  47.0032 355.8881 0029524  22.3170 337.9047 14.78613645   216
1 41188U 15081K   15357.81582256 -.00000487 +00000-0 -37068-4 0  9994,2 41188 047.0034 354.2392 0029480 024.1197 336.1031 14.78612114000267
1 41188U 15081K   15358.89695634  .00001461  00000-0  22396-3 0  9996,2 41188  47.0031 348.9629 0029443  29.0958 331.1563 14.78619891   427
1 41188U 15081K   15359.43752353 +.00001344 +00000-0 +20832-3 0  9992,2 41188 047.0030 346.3248 0029460 031.6767 328.5907 14.78621097000503
1 41188U 15081K   15359.97808898  .00001249  00000-0  19550-3 0  9996,2 41188  47.0030 343.6864 0029483  34.2412 326.0346 14.78622246   583
1 41188U 15081K   15360.85650979 +.00001012 +00000-0 +16380-3 0  9996,2 41188 047.0028 339.3990 0029402 038.4240 321.8749 14.78623044000710
1 41188U 15081K   15360.99165090  .00000971  00000-0  15824-3 0  9991,2 41188  47.0026 338.7399 0029463  39.0555 321.2433 14.78623091   735
1 41188U 15081K   15361.39707505 +.00001026 +00000-0 +16562-3 0  9991,2 41188 047.0026 336.7616 0029464 040.9816 319.3284 14.78624303000792
1 41188U 15081K   15362.00520987  .00000734  00000-0  12653-3 0  9999,2 41188  47.0025 333.7933 0029397  43.8297 316.4884 14.78624231   884
1 41188U 15081K   15362.41063331 +.00001215 +00000-0 +19097-3 0  9993,2 41188 047.0010 331.8184 0029585 045.7355 314.5977 14.78627528000941
1 41188U 15081K   15363.08633649  .00001475  00000-0  22582-3 0  9993,2 41188  47.0005 328.5215 0029482  49.1765 311.1754 14.78631079  1046
1 41188U 15081K   15363.35661383 +.00002012 +00000-0 +29770-3 0  9993,2 41188 047.0007 327.2026 0029695 050.2933 310.0578 14.78635278001081
1 41188U 15081K   15364.09988307  .00002662  00000-0  38459-3 0  9998,2 41188  47.0014 323.5762 0029492  54.1184 306.2544 14.78641512  1191
1 41188U 15081K   15364.91071719 +.00002515 +00000-0 +36496-3 0  9995,2 41188 047.0019 319.6195 0029374 058.1252 302.2478 14.78645097001319
1 41188U 15081K   15365.31613677  .00002081  00000-0  30684-3 0  9996,2 41188  47.0022 317.6414 0029473  60.0115 300.3646 14.78644385  1376
1 41188U 15081K   15365.85669377 +.00001855 +00000-0 +27651-3 0  9991,2 41188 047.0026 315.0037 0029459 062.4638 297.9207 14.78645831001453
1 41188U 15081K   16001.66752628  .00001925  00000-0  28584-3 0  9994,2 41188  47.0036 311.0454 0029895  65.8316 294.5675 14.78650411  1572
1 41188U 15081K   16002.27564924  .00007739  00000-0  10623-2 0  9995,2 41188  47.0058 308.0822 0030009  69.9473 290.6210 14.78687796  1667
1 41188U 15081K   16002.81615858 +.00009054 +00000-0 +12374-2 0  9995,2 41188 047.0052 305.4430 0030070 072.6745 287.7587 14.78702104001742
1 41188U 15081K   16003.01885604  .00013029  00000-0  17688-2 0  9996,2 41188  47.0031 304.4642 0026529  79.2606 281.2992 14.78730057  1776
1 41188U 15081K   16003.28907162  .00023424  00000-0  31456-2 0  9998,2 41188  47.0040 303.1416 0028894  72.8358 287.5935 14.78784046  1819
1 41188U 15081K   16003.62688080 +.00023746 +00000-0 +31871-2 0  9999,2 41188 047.0033 301.4896 0028841 074.8857 285.5313 14.78801419001869
1 41188U 15081K   16003.96468876  .00025911  00000-0  34716-2 0  9992,2 41188  47.0033 299.8403 0028835  76.4851 283.9843 14.78830449  1919
1 41188U 15081K   16004.30247452  .00030035  00000-0  40140-2 0  9997,2 41188  47.0042 298.1881 0028871  78.2489 282.1644 14.78863528  1967
1 41188U 15081K   16004.84294395 +.00029781 +00000-0 +39771-2 0  9998,2 41188 047.0035 295.5489 0029088 080.4176 279.9877 14.78894331002041
1 41188U 15081K   16004.97806196  .00027078  00000-0  36175-2 0  9992,2 41188  47.0037 294.8853 0031025  78.1825 282.1328 14.78884996  2064
1 41188U 15081K   16005.11320139 +.00026944 +00000-0 +35992-2 0  9994,2 41188 047.0035 294.2262 0031043 079.0503 281.3871 14.78891841002086
1 41188U 15081K   16007.74784026  .00025001  00000-0  33440-2 0  9993,2 41188  47.0098 281.3904 0028128  99.8144 259.6039 14.78933743  2460
1 41188U 15081K   16007.74806307  .00007669  00000-0  10196-2 0  9993,2 41188  47.0006 281.3654 0029436  98.8191 261.6536 14.78870748  2487
1 41188U 15081K   16007.88313776  .00015471  00000-0  20796-2 0  9998,2 41188  46.9964 280.7096 0031628  98.1145 262.3989 14.78925100  2493
1 41188U 15081K   16008.28846259  .00024487  00000-0  32718-2 0  9994,2 41188  46.9974 278.7313 0028583  97.0961 263.4676 14.78979585  2551
1 41188U 15081K   16008.82886160  .00023754  00000-0  31675-2 0  9996,2 41188  47.0018 276.0841 0030070  97.8398 263.2735 14.79049495  2637
1 41188U 15081K   16009.90952729  .00157538  00000-0  20214-1 0  9995,2 41188  46.9985 270.8199 0027520 107.6282 254.1595 14.79591032  2793
1 41188U 15081K   16010.51696031  .00105884  00000-0  13677-1 0  9997,2 41188  47.0020 267.8539 0027376 110.8216 249.3293 14.79656107  2887
1 41188U 15081K   16012.74441706 +.00701525 +00000-0 +84156-1 0  9995,2 41188 047.0062 256.9826 0022392 125.0217 235.3468 14.80785500003212
1 41188U 15081K   16013.01425719  .00150212  00000-0  18814-1 0  9991,2 41188  46.9952 255.6390 0021086 125.8219 234.2347 14.80755867  3250
1 41188U 15081K   16013.48659763  .00047672  00000-0  60778-2 0  9992,2 41188  46.9956 253.3227 0021565 128.2783 231.8970 14.80756426  3328
1 41188U 15081K   16013.75650645  .00120517  00000-0  15113-1 0  9994,2 41188  46.9956 252.0006 0021557 129.5647 230.8570 14.80894564  3368
1 41188U 15081K   16013.95887586  .00106390  00000-0  13363-1 0  9990,2 41188  46.9908 251.0139 0021713 130.6772 229.5809 14.80920956  3395
1 41188U 15081K   16014.09380874  .00194994  00000-0  24014-1 0  9996,2 41188  47.0007 250.3594 0025005 130.7124 229.8074 14.81115895  3413
1 41188U 15081K   16014.76825550  .00210900  00000-0  25727-1 0  9993,2 41188  47.0007 247.0536 0024914 133.9495 226.3505 14.81414857  3518
1 41188U 15081K   16015.51005076 +.00207597 +00000-0 +25188-1 0  9999,2 41188 046.9994 243.4122 0022158 137.5227 222.7208 14.81702547003621
1 41188U 15081K   16015.64491070 -.00202524  00000-0 -26003-1 0  9990,2 41188  46.9970 242.7469 0015048 138.3660 221.7882 14.81830404  3644
1 41188U 15081K   16016.04948586  .00026643  00000-0  33345-2 0  9996,2 41188  47.0012 240.7596 0015286 140.4931 219.8933 14.81882468  3700
1 41188U 15081K   16016.52139912  .00055685  00000-0  69007-2 0  9996,2 41188  47.0003 238.4427 0014858 143.0268 217.2336 14.81950978  3771
1 41188U 15081K   16016.79105677  .00135989  00000-0  16548-1 0  9993,2 41188  46.9947 237.1316 0015659 145.8739 214.5234 14.82118653  3811
1 41188U 15081K   16016.99324620  .00198866  00000-0  23870-1 0  9995,2 41188  47.0032 236.1413 0016867 142.7217 217.5881 14.82272934  3841
1 41188U 15081K   16017.53241752  .00177630  00000-0  21311-1 0  9994,2 41188  47.0038 233.4945 0016633 144.8067 215.2908 14.82430661  3921
1 41188U 15081K   16017.80201386  .00150884  00000-0  18172-1 0  9996,2 41188  47.0024 232.1680 0016187 147.4352 212.5697 14.82446398  3961
1 41188U 15081K   16018.07162405  .00128652  00000-0  15556-1 0  9995,2 41188  47.0032 230.8370 0013208 143.7178 216.2648 14.82456397  4000
1 41188U 15081K   16018.81307387  .00080818  00000-0  98505-2 0  9994,2 41188  46.9943 227.1877 0013928 137.9881 222.1290 14.82448260  4116
1 41188U 15081K   16019.08267194  .00099420  00000-0  12033-1 0  9995,2 41188  46.9977 225.8871 0018630 155.2286 205.1117 14.82553736  4157
1 41188U 15081K   16019.68913436  .00465482  00000-0  52848-1 0  9991,2 41188  46.9977 222.9080 0018596 158.1460 203.1961 14.83345421  4240
1 41188U 15081K   16020.96816515  .00411662  00000-0  46011-1 0  9990,2 41188  46.9977 216.6123 0018276 164.5065 195.0359 14.84278002  4437
1 41188U 15081K   16021.91041536  .00508200  00000-0  55413-1 0  9990,2 41188  47.0124 211.9693 0007902 166.0169 194.5705 14.85262639  4573
1 41188U 15081K   16022.85178683  .00440641  00000-0  47194-1 0  9999,2 41188  47.0086 207.3230 0009553 214.2851 145.2526 14.85947622  4716
1 41188U 15081K   16025.94202980  .00000241  00000-0  51992-4 0  9992,2 41188  46.9968 192.0699 0008398 269.3115  74.2092 14.85815718  5172
1 41188U 15081K   16026.68477833  .00000818  00000-0  11748-3 0  9999,2 41188  46.9985 188.4071 0008633 272.2904  87.7004 14.85817649  5284
1 41188U 15081K   16027.82790472  .00000233  00000-0  51107-4 0  9998,2 41188  46.9991 182.7606 0008508 279.3182  80.6680 14.85817523  5451
1 41188U 15081K   16028.50033319 +.00000333 +00000-0 +62440-4 0  9997,2 41188 046.9992 179.4408 0008530 282.9563 077.0374 14.85818794005555
1 41188U 15081K   16028.76931322  .00001814  00000-0  20539-3 0  9993,2 41188  46.9974 178.1203 0008627 280.0922  79.9505 14.85820078  5598
1 41188U 15081K   16028.83654702  .00000397  00000-0  69746-4 0  9994,2 41188  46.9994 177.7818 0008503 284.3551  75.6412 14.85819547  5606
